[{"OBJECT_NAME":"ONEWEB-0403","OBJECT_ID":"2021-132Q","EPOCH":"2026-05-23T12:49:28.384320","MEAN_MOTION":13.18686988,"ECCENTRICITY":0.0001948,"INCLINATION":87.9171,"RA_OF_ASC_NODE":340.361,"ARG_OF_PERICENTER":90.7152,"MEAN_ANOMALY":269.4203,"EPHEMERIS_TYPE":0,"CLASSIFICATION_TYPE":"U","NORAD_CAT_ID":50483,"ELEMENT_SET_NO":999,"REV_AT_EPOCH":21834,"BSTAR":-5.939400000000001e-05,"MEAN_MOTION_DOT":-1.1e-07,"MEAN_MOTION_DDOT":0.0},{"OBJECT_NAME":"ONEWEB-0404","OBJECT_ID":"2021-132R","EPOCH":"2026-05-23T09:10:44.171616","MEAN_MOTION":13.11415255,"ECCENTRICITY":0.0002037,"INCLINATION":87.8909,"RA_OF_ASC_NODE":26.0017,"ARG_OF_PERICENTER":88.6693,"MEAN_ANOMALY":271.4668,"EPHEMERIS_TYPE":0,"CLASSIFICATION_TYPE":"U","NORAD_CAT_ID":50484,"ELEMENT_SET_NO":999,"REV_AT_EPOCH":21244,"BSTAR":-0.00098946,"MEAN_MOTION_DOT":-3.38e-06,"MEAN_MOTION_DDOT":0.0},{"OBJECT_NAME":"ONEWEB-0405","OBJECT_ID":"2021-132S","EPOCH":"2026-05-23T11:19:38.062848","MEAN_MOTION":13.18685322,"ECCENTRICITY":0.0001502,"INCLINATION":87.9173,"RA_OF_ASC_NODE":340.3574,"ARG_OF_PERICENTER":99.1077,"MEAN_ANOMALY":261.0226,"EPHEMERIS_TYPE":0,"CLASSIFICATION_TYPE":"U","NORAD_CAT_ID":50485,"ELEMENT_SET_NO":999,"REV_AT_EPOCH":21873,"BSTAR":1.0644000000000002e-05,"MEAN_MOTION_DOT":1.7e-07,"MEAN_MOTION_DDOT":0.0},{"OBJECT_NAME":"ONEWEB-0406","OBJECT_ID":"2021-132T","EPOCH":"2026-05-23T12:56:45.926016","MEAN_MOTION":13.18687648,"ECCENTRICITY":0.0002316,"INCLINATION":87.9162,"RA_OF_ASC_NODE":340.3626,"ARG_OF_PERICENTER":97.429,"MEAN_ANOMALY":262.7105,"EPHEMERIS_TYPE":0,"CLASSIFICATION_TYPE":"U","NORAD_CAT_ID":50486,"ELEMENT_SET_NO":999,"REV_AT_EPOCH":21837,"BSTAR":-4.5301000000000006e-05,"MEAN_MOTION_DOT":-5e-08,"MEAN_MOTION_DDOT":0.0},{"OBJECT_NAME":"ONEWEB-0407","OBJECT_ID":"2021-132U","EPOCH":"2026-05-23T12:47:02.275872","MEAN_MOTION":13.18685339,"ECCENTRICITY":0.0001679,"INCLINATION":87.9171,"RA_OF_ASC_NODE":340.3543,"ARG_OF_PERICENTER":82.8439,"MEAN_ANOMALY":277.2884,"EPHEMERIS_TYPE":0,"CLASSIFICATION_TYPE":"U","NORAD_CAT_ID":50487,"ELEMENT_SET_NO":999,"REV_AT_EPOCH":21831,"BSTAR":-2.3596000000000002e-06,"MEAN_MOTION_DOT":1.2e-07,"MEAN_MOTION_DDOT":0.0},{"OBJECT_NAME":"ONEWEB-0409","OBJECT_ID":"2021-132V","EPOCH":"2026-05-23T09:08:17.492928","MEAN_MOTION":13.11415232,"ECCENTRICITY":0.0001882,"INCLINATION":87.8915,"RA_OF_ASC_NODE":25.989,"ARG_OF_PERICENTER":89.8981,"MEAN_ANOMALY":270.2362,"EPHEMERIS_TYPE":0,"CLASSIFICATION_TYPE":"U","NORAD_CAT_ID":50488,"ELEMENT_SET_NO":999,"REV_AT_EPOCH":21233,"BSTAR":-0.0010363,"MEAN_MOTION_DOT":-3.55e-06,"MEAN_MOTION_DDOT":0.0},{"OBJECT_NAME":"ONEWEB-0412","OBJECT_ID":"2021-132W","EPOCH":"2026-05-23T12:30:03.180096","MEAN_MOTION":13.18687296,"ECCENTRICITY":0.0001978,"INCLINATION":87.9168,"RA_OF_ASC_NODE":340.3658,"ARG_OF_PERICENTER":79.6188,"MEAN_ANOMALY":280.5167,"EPHEMERIS_TYPE":0,"CLASSIFICATION_TYPE":"U","NORAD_CAT_ID":50489,"ELEMENT_SET_NO":999,"REV_AT_EPOCH":21840,"BSTAR":-9.3053e-05,"MEAN_MOTION_DOT":-2.4e-07,"MEAN_MOTION_DDOT":0.0},{"OBJECT_NAME":"ONEWEB-0413","OBJECT_ID":"2021-132X","EPOCH":"2026-05-23T12:37:20.224128","MEAN_MOTION":13.18686591,"ECCENTRICITY":0.0001815,"INCLINATION":87.9161,"RA_OF_ASC_NODE":340.3655,"ARG_OF_PERICENTER":78.6671,"MEAN_ANOMALY":281.4665,"EPHEMERIS_TYPE":0,"CLASSIFICATION_TYPE":"U","NORAD_CAT_ID":50490,"ELEMENT_SET_NO":999,"REV_AT_EPOCH":21834,"BSTAR":-0.00012692,"MEAN_MOTION_DOT":-3.7e-07,"MEAN_MOTION_DDOT":0.0},{"OBJECT_NAME":"ONEWEB-0414","OBJECT_ID":"2021-132Y","EPOCH":"2026-05-23T12:15:28.228896","MEAN_MOTION":13.18686803,"ECCENTRICITY":0.0001986,"INCLINATION":87.9169,"RA_OF_ASC_NODE":340.3477,"ARG_OF_PERICENTER":85.5899,"MEAN_ANOMALY":274.5459,"EPHEMERIS_TYPE":0,"CLASSIFICATION_TYPE":"U","NORAD_CAT_ID":50491,"ELEMENT_SET_NO":999,"REV_AT_EPOCH":21837,"BSTAR":-1.0374000000000001e-05,"MEAN_MOTION_DOT":9e-08,"MEAN_MOTION_DDOT":0.0},{"OBJECT_NAME":"ONEWEB-0417","OBJECT_ID":"2021-132Z","EPOCH":"2026-05-23T12:27:37.367136","MEAN_MOTION":13.18687644,"ECCENTRICITY":0.0001982,"INCLINATION":87.9161,"RA_OF_ASC_NODE":340.3678,"ARG_OF_PERICENTER":93.9213,"MEAN_ANOMALY":266.2145,"EPHEMERIS_TYPE":0,"CLASSIFICATION_TYPE":"U","NORAD_CAT_ID":50492,"ELEMENT_SET_NO":999,"REV_AT_EPOCH":21835,"BSTAR":-6.9012e-05,"MEAN_MOTION_DOT":-1.4e-07,"MEAN_MOTION_DDOT":0.0},{"OBJECT_NAME":"ONEWEB-0418","OBJECT_ID":"2021-132AA","EPOCH":"2026-05-23T12:41:59.138016","MEAN_MOTION":13.18685272,"ECCENTRICITY":0.0002027,"INCLINATION":87.9169,"RA_OF_ASC_NODE":340.363,"ARG_OF_PERICENTER":95.7112,"MEAN_ANOMALY":264.4251,"EPHEMERIS_TYPE":0,"CLASSIFICATION_TYPE":"U","NORAD_CAT_ID":50493,"ELEMENT_SET_NO":999,"REV_AT_EPOCH":21841,"BSTAR":2.0387e-05,"MEAN_MOTION_DOT":2.1e-07,"MEAN_MOTION_DDOT":0.0},{"OBJECT_NAME":"ONEWEB-0419","OBJECT_ID":"2021-132AB","EPOCH":"2026-05-23T13:08:12.424128","MEAN_MOTION":13.18664469,"ECCENTRICITY":0.0001842,"INCLINATION":87.917,"RA_OF_ASC_NODE":340.3591,"ARG_OF_PERICENTER":96.6268,"MEAN_ANOMALY":263.5074,"EPHEMERIS_TYPE":0,"CLASSIFICATION_TYPE":"U","NORAD_CAT_ID":50494,"ELEMENT_SET_NO":999,"REV_AT_EPOCH":21833,"BSTAR":8.5613e-05,"MEAN_MOTION_DOT":4.7e-07,"MEAN_MOTION_DDOT":0.0},{"OBJECT_NAME":"ONEWEB-0420","OBJECT_ID":"2021-132AC","EPOCH":"2026-05-23T12:17:53.549376","MEAN_MOTION":13.18687008,"ECCENTRICITY":0.0001677,"INCLINATION":87.9161,"RA_OF_ASC_NODE":340.3712,"ARG_OF_PERICENTER":84.2637,"MEAN_ANOMALY":275.8686,"EPHEMERIS_TYPE":0,"CLASSIFICATION_TYPE":"U","NORAD_CAT_ID":50495,"ELEMENT_SET_NO":999,"REV_AT_EPOCH":21832,"BSTAR":-6.2444e-05,"MEAN_MOTION_DOT":-1.2e-07,"MEAN_MOTION_DDOT":0.0},{"OBJECT_NAME":"ONEWEB-0421","OBJECT_ID":"2021-132AD","EPOCH":"2026-05-23T12:08:11.806944","MEAN_MOTION":13.18685203,"ECCENTRICITY":0.0002181,"INCLINATION":87.9166,"RA_OF_ASC_NODE":340.369,"ARG_OF_PERICENTER":82.8729,"MEAN_ANOMALY":277.2651,"EPHEMERIS_TYPE":0,"CLASSIFICATION_TYPE":"U","NORAD_CAT_ID":50496,"ELEMENT_SET_NO":999,"REV_AT_EPOCH":21836,"BSTAR":8.1643e-05,"MEAN_MOTION_DOT":4.5e-07,"MEAN_MOTION_DDOT":0.0},{"OBJECT_NAME":"ONEWEB-0424","OBJECT_ID":"2021-132AE","EPOCH":"2026-05-23T13:01:37.475040","MEAN_MOTION":13.18687997,"ECCENTRICITY":0.0001675,"INCLINATION":87.9171,"RA_OF_ASC_NODE":340.3587,"ARG_OF_PERICENTER":97.3001,"MEAN_ANOMALY":262.8322,"EPHEMERIS_TYPE":0,"CLASSIFICATION_TYPE":"U","NORAD_CAT_ID":50497,"ELEMENT_SET_NO":999,"REV_AT_EPOCH":21839,"BSTAR":0.00012499,"MEAN_MOTION_DOT":6.2e-07,"MEAN_MOTION_DDOT":0.0},{"OBJECT_NAME":"ONEWEB-0426","OBJECT_ID":"2021-132AF","EPOCH":"2026-05-23T12:02:09.503232","MEAN_MOTION":13.18686702,"ECCENTRICITY":0.0002534,"INCLINATION":87.9169,"RA_OF_ASC_NODE":340.3583,"ARG_OF_PERICENTER":90.7268,"MEAN_ANOMALY":269.4155,"EPHEMERIS_TYPE":0,"CLASSIFICATION_TYPE":"U","NORAD_CAT_ID":50498,"ELEMENT_SET_NO":999,"REV_AT_EPOCH":21833,"BSTAR":-6.706400000000001e-05,"MEAN_MOTION_DOT":-1.4e-07,"MEAN_MOTION_DDOT":0.0}]