ONEWEB-0403             
1 50483U 21132Q   26143.53435630 -.00000011  00000+0 -59394-4 0  9991
2 50483  87.9171 340.3610 0001948  90.7152 269.4203 13.18686988218340
ONEWEB-0404             
1 50484U 21132R   26143.38245569 -.00000338  00000+0 -98946-3 0  9992
2 50484  87.8909  26.0017 0002037  88.6693 271.4668 13.11415255212447
ONEWEB-0405             
1 50485U 21132S   26143.47196832  .00000017  00000+0  10644-4 0  9993
2 50485  87.9173 340.3574 0001502  99.1077 261.0226 13.18685322218735
ONEWEB-0406             
1 50486U 21132T   26143.53942044 -.00000005  00000+0 -45301-4 0  9992
2 50486  87.9162 340.3626 0002316  97.4290 262.7105 13.18687648218371
ONEWEB-0407             
1 50487U 21132U   26143.53266523  .00000012  00000+0 -23596-5 0  9994
2 50487  87.9171 340.3543 0001679  82.8439 277.2884 13.18685339218318
ONEWEB-0409             
1 50488U 21132V   26143.38075802 -.00000355  00000+0 -10363-2 0  9992
2 50488  87.8915  25.9890 0001882  89.8981 270.2362 13.11415232212336
ONEWEB-0412             
1 50489U 21132W   26143.52087014 -.00000024  00000+0 -93053-4 0  9999
2 50489  87.9168 340.3658 0001978  79.6188 280.5167 13.18687296218405
ONEWEB-0413             
1 50490U 21132X   26143.52592852 -.00000037  00000+0 -12692-3 0  9995
2 50490  87.9161 340.3655 0001815  78.6671 281.4665 13.18686591218346
ONEWEB-0414             
1 50491U 21132Y   26143.51074339  .00000009  00000+0 -10374-4 0  9994
2 50491  87.9169 340.3477 0001986  85.5899 274.5459 13.18686803218378
ONEWEB-0417             
1 50492U 21132Z   26143.51918249 -.00000014  00000+0 -69012-4 0  9992
2 50492  87.9161 340.3678 0001982  93.9213 266.2145 13.18687644218355
ONEWEB-0418             
1 50493U 21132AA  26143.52915669  .00000021  00000+0  20387-4 0  9995
2 50493  87.9169 340.3630 0002027  95.7112 264.4251 13.18685272218411
ONEWEB-0419             
1 50494U 21132AB  26143.54736602  .00000047  00000+0  85613-4 0  9997
2 50494  87.9170 340.3591 0001842  96.6268 263.5074 13.18664469218335
ONEWEB-0420             
1 50495U 21132AC  26143.51242534 -.00000012  00000+0 -62444-4 0  9992
2 50495  87.9161 340.3712 0001677  84.2637 275.8686 13.18687008218328
ONEWEB-0421             
1 50496U 21132AD  26143.50569221  .00000045  00000+0  81643-4 0  9993
2 50496  87.9166 340.3690 0002181  82.8729 277.2651 13.18685203218363
ONEWEB-0424             
1 50497U 21132AE  26143.54279485  .00000062  00000+0  12499-3 0  9999
2 50497  87.9171 340.3587 0001675  97.3001 262.8322 13.18687997218396
ONEWEB-0426             
1 50498U 21132AF  26143.50149888 -.00000014  00000+0 -67064-4 0  9997
2 50498  87.9169 340.3583 0002534  90.7268 269.4155 13.18686702218331
